[{"OBJECT_NAME":"STARLINK-4129","OBJECT_ID":"2022-086K","EPOCH":"2026-03-09T15:15:53.294400","MEAN_MOTION":15.08834962,"ECCENTRICITY":0.0001302,"INCLINATION":53.2174,"RA_OF_ASC_NODE":194.3595,"ARG_OF_PERICENTER":91.1591,"MEAN_ANOMALY":268.955,"EPHEMERIS_TYPE":0,"CLASSIFICATION_TYPE":"U","NORAD_CAT_ID":53251,"ELEMENT_SET_NO":999,"REV_AT_EPOCH":20105,"BSTAR":-8.7742e-6,"MEAN_MOTION_DOT":-4.27e-6,"MEAN_MOTION_DDOT":0},{"OBJECT_NAME":"COSMOS 886 DEB","OBJECT_ID":"1976-126BB","EPOCH":"2026-03-09T11:56:28.762368","MEAN_MOTION":13.92875098,"ECCENTRICITY":0.05307589,"INCLINATION":65.7939,"RA_OF_ASC_NODE":106.2794,"ARG_OF_PERICENTER":113.8415,"MEAN_ANOMALY":251.9212,"EPHEMERIS_TYPE":0,"CLASSIFICATION_TYPE":"U","NORAD_CAT_ID":9961,"ELEMENT_SET_NO":999,"REV_AT_EPOCH":38673,"BSTAR":0.00065937265,"MEAN_MOTION_DOT":2.683e-5,"MEAN_MOTION_DDOT":0}]
